STARLINK-35692          
1 66513U 25263AE  25346.00005787  .00086392  00000+0  14659-2 0  9990
2 66513  43.0002 129.3766 0001829 288.1081 227.8636 15.50508450  5512
SENTINEL-6B             
1 66514U 25264A   25346.25094248 -.00000015  00000+0  19742-3 0  9997
2 66514  66.0385 163.4531 0007848 270.1768  89.8348 12.81479583  3228
STARLINK-35924          
1 66516U 25265A   25346.25001157 -.02351276  00000+0 -58248-1 0  9990
2 66516  43.0004  56.9436 0001252 251.5557   4.7897 15.43116483  4892
STARLINK-35937          
1 66517U 25265B   25346.25001157  .00028303  00000+0  48703-3 0  9996
2 66517  43.0003  56.8815 0001400 268.9208  12.8005 15.50549289  4918
STARLINK-35962          
1 66518U 25265C   25346.25001157 -.00083330  00000+0 -14257-2 0  9996
2 66518  42.9999  56.8767 0002289 266.9099  16.7373 15.50654890  4915
STARLINK-35931          
1 66519U 25265D   25346.25001157 -.00288317  00000+0 -50646-2 0  9991
2 66519  43.0003  56.8717 0001407 256.9334  28.6261 15.50728592  4910
STARLINK-35952          
1 66520U 25265E   25346.25001157 -.02067235  00000+0 -43013-1 0  9998
2 66520  43.0003  56.8719 0001419 256.1381  29.1894 15.48262565  4919
STARLINK-35915          
1 66521U 25265F   25346.25001157  .00028457  00000+0  48971-3 0  9998
2 66521  43.0003  56.8621 0001675 259.5909  29.7942 15.50544805  4912
STARLINK-35946          
1 66522U 25265G   25346.25001157  .00022234  00000+0  38368-3 0  9995
2 66522  43.0001  56.8572 0001854 264.0677  27.1251 15.50582792  4910
STARLINK-35969          
1 66523U 25265H   25346.25001157  .00026767  00000+0  46092-3 0  9994
2 66523  43.0005  56.8521 0004353 285.3164   7.9158 15.50547338  4912
STARLINK-35687          
1 66524U 25265J   25346.25001157 -.02040358  00000+0 -48954-1 0  9998
2 66524  43.0007  56.8883 0001067 266.2124  12.3328 15.44128612  4911
STARLINK-35975          
1 66525U 25265K   25346.25001157 -.02269434  00000+0 -44319-1 0  9998
2 66525  43.0003  56.8427 0001381 267.6679  29.2051 15.50387618  4911
STARLINK-35932          
1 66526U 25265L   25346.25001157  .00095723  00000+0  16210-2 0  9993
2 66526  43.0004  56.8358 0001715 222.4237  76.4649 15.50519619  4809
STARLINK-35935          
1 66527U 25265M   25346.25001157  .00033029  00000+0  56717-3 0  9992
2 66527  43.0004  56.8332 0001226 253.0589  47.8231 15.50542754  4916
STARLINK-35928          
1 66528U 25265N   25346.25001157  .00040613  00000+0  69536-3 0  9993
2 66528  43.0005  56.8282 0001549 265.6489  37.1560 15.50544041  4916
STARLINK-35933          
1 66529U 25265P   25346.25001157 -.02052192  00000+0 -48652-1 0  9997
2 66529  43.0009  56.8598 0001166 258.5817  31.3591 15.44496708  4911
STARLINK-35961          
1 66530U 25265Q   25346.25001157 -.02082834  00000+0 -44690-1 0  9993
2 66530  43.0005  56.8281 0001442 265.8490  36.7747 15.47417379  4915
STARLINK-35960          
1 66531U 25265R   25346.25001157 -.02105832  00000+0 -40769-1 0  9991
2 66531  43.0005  56.8131 0001133 260.2889  48.2253 15.50353883  4911
STARLINK-35914          
1 66532U 25265S   25346.25001157  .00059602  00000+0  10154-2 0  9997
2 66532  43.0001  56.8082 0001567 243.5519  66.9129 15.50542399  4919
STARLINK-35707          
1 66533U 25265T   25346.25001157  .00087904  00000+0  14913-2 0  9991
2 66533  43.0003  56.8037 0001544 262.7653  49.6330 15.50505990  4917
STARLINK-35976          
1 66534U 25265U   25346.25001157  .00029818  00000+0  51278-3 0  9998
2 66534  43.0005  56.7999 0001344 259.2936  55.0096 15.50544632  4915
STARLINK-35514          
1 66535U 25265V   25346.25001157  .00030498  00000+0  52420-3 0  9995
2 66535  43.0006  56.7949 0001622 264.7222  51.4987 15.50549900  4912
STARLINK-35640          
1 66536U 25265W   25346.25001157  .00030666  00000+0  52711-3 0  9996
2 66536  43.0004  56.7902 0001159 263.3369  54.7989 15.50545984  4895
STARLINK-35582          
1 66537U 25265X   25346.25001157 -.00086525  00000+0 -14773-2 0  9999
2 66537  43.0006  56.7854 0001351 261.1373  58.8932 15.50731762  4916
STARLINK-35577          
1 66538U 25265Y   25346.25001157  .00099683  00000+0  16884-2 0  9992
2 66538  43.0005  56.7801 0001445 262.7669  59.1499 15.50496154  4912
STARLINK-35697          
1 66539U 25265Z   25346.25001157  .00091901  00000+0  15564-2 0  9992
2 66539  43.0007  56.7753 0001776 239.6128  84.1684 15.50535926  4916
STARLINK-35818          
1 66540U 25265AA  25346.25001157  .00091184  00000+0  15479-2 0  9992
2 66540  43.0005  56.7702 0001656 260.1559  65.6550 15.50473445  4917
STARLINK-35796          
1 66541U 25265AB  25346.25001157 -.00094259  00000+0 -16161-2 0  9990
2 66541  43.0004  56.7655 0001752 262.3381  65.3471 15.50649638  4916
STARLINK-35833          
1 66542U 25265AC  25346.25001157  .00030220  00000+0  51955-3 0  9998
2 66542  43.0005  56.7612 0001427 258.3037  71.3367 15.50546353  4914
STARLINK-35315          
1 66543U 25265AD  25346.25001157  .00032928  00000+0  56539-3 0  9999
2 66543  43.0006  56.7558 0001266 255.3665  76.1941 15.50545976  4809
STARLINK-35728          
1 66544U 25265AE  25346.25001157  .00023436  00000+0  40443-3 0  9991
2 66544  43.0004  56.7510 0001487 256.3433  77.1239 15.50556396  4916
SHIJIAN-30A             
1 66545U 25266A   25346.29532930  .00016286  00000+0  85851-3 0  9992
2 66545  51.7982 334.9438 0012780 354.9476   5.1369 15.15639063  3512
SHIJIAN-30B             
1 66546U 25266B   25346.23047511  .00018833  00000+0  99738-3 0  9992
2 66546  51.7965 335.2563 0010472 357.7085   2.3842 15.15394940  3506
SHIJIAN-30C             
1 66547U 25266C   25346.23086865  .00016701  00000+0  88728-3 0  9997
2 66547  51.7976 335.2594 0011493 349.4573  10.6160 15.15357456  3503
CZ-2C R/B               
1 66548U 25266D   25346.27515304  .00015017  00000+0  46658-3 0  9992
2 66548  52.0553 333.4936 0083920 171.4081 188.8364 15.30162717  3549
SHIJIAN-28              
1 66549U 25277A   25345.91003084  .00000783  00000+0  18715-3 0  9999
2 66549  66.6630 189.8532 0226533 275.2622  82.2673 14.45036477423741
CZ-7A R/B               
1 66550U 25277B   25345.88561420  .01819102  71296-6  16961-2 0  9996
2 66550  14.3870 270.3219 7045564 188.1950 147.1658  2.66441312   320
USA 568                 
1 66551U 24134K   25336.66670139 -.01709685  00000+0 -74303-2 0  9990
2 66551  53.1571 236.7807 0000717 110.7411 313.9012 15.87051116  2624
GLOBAL-33               
1 66554U 25267A   25346.27238416  .00013207  00000+0  43059-3 0  9997
2 66554  42.0213  59.6909 0004275  51.9902 308.1321 15.31623691  3336
ELECTRON KICK STAGE R/B 
1 66555U 25267B   25346.26092961  .00035216  00000+0  10908-2 0  9990
2 66555  42.0197  59.6038 0006567  48.8841 311.2563 15.32775527  3334
STARLINK-35699          
1 66557U 25268A   25346.25001157  .00009818  00000+0  17336-3 0  9991
2 66557  42.9999 124.0616 0001504 265.6694 336.1149 15.50515246  4589
STARLINK-35695          
1 66558U 25268B   25346.25001157 -.00103507  00000+0 -17782-2 0  9998
2 66558  43.0000 124.0586 0003345 263.4091 340.1623 15.50629983  4589
STARLINK-35419          
1 66559U 25268C   25346.25001157  .00110478  00000+0  18703-2 0  9996
2 66559  43.0000 124.0534 0002779 247.1836 358.3259 15.50460028  4588
STARLINK-35411          
1 66560U 25268D   25346.25001157  .00024517  00000+0  42228-3 0  9996
2 66560  43.0000 124.0489 0002027 268.8908 338.4370 15.50587704  4589
STARLINK-35305          
1 66561U 25268E   25346.25001157  .00060600  00000+0  10327-2 0  9994
2 66561  43.0000 124.0390 0001432 268.1561 343.1052 15.50527680  4541
STARLINK-35579          
1 66562U 25268F   25346.25001157  .00069046  00000+0  11745-2 0  9993
2 66562  43.0003 124.0433 0001536 270.4844 338.8567 15.50527480  4582
STARLINK-35437          
1 66563U 25268G   25346.25001157  .00060633  00000+0  10331-2 0  9997
2 66563  43.0000 124.0340 0001603 269.4606 343.7123 15.50531228  4584
STARLINK-35358          
1 66564U 25268H   25346.25001157  .00018568  00000+0  32178-3 0  9992
2 66564  42.9998 124.0296 0001507 264.8693 350.2181 15.50560054  4549
STARLINK-35893          
1 66565U 25268J   25346.25001157 -.00003328  00000+0 -50952-4 0  9994
2 66565  42.9999 124.0245 0001530 263.2072 353.7970 15.50570203  4580
STARLINK-35871          
1 66566U 25268K   25346.25001157  .00012900  00000+0  22537-3 0  9996
2 66566  43.0000 124.0194 0001583 284.5211 334.3613 15.50575400  4581
STARLINK-35825          
1 66567U 25268L   25346.25001157  .00067719  00000+0  11524-2 0  9998
2 66567  43.0000 124.0148 0001316 268.7934 352.0577 15.50523718  4582
STARLINK-35803          
1 66568U 25268M   25346.25001157  .00052766  00000+0  90069-3 0  9997
2 66568  43.0001 124.0095 0001817 281.8198 340.9368 15.50531504  4596
STARLINK-35835          
1 66569U 25268N   25346.25001157 -.00007332  00000+0 -11929-3 0  9997
2 66569  43.0000 124.0051 0001822 269.1191 355.5506 15.50570082  4596
STARLINK-35834          
1 66570U 25268P   25346.25001157  .00051023  00000+0  87131-3 0  9991
2 66570  43.0001 123.9998 0001537 261.1182   5.4675 15.50532484  4594
STARLINK-35836          
1 66571U 25268Q   25346.25001157  .00033077  00000+0  56776-3 0  9992
2 66571  43.0002 123.9951 0001787 266.3972   2.1065 15.50553958  4592
STARLINK-35870          
1 66572U 25268R   25346.25001157  .00034801  00000+0  59692-3 0  9999
2 66572  43.0001 123.9912 0001696 269.0669   1.3568 15.50553631  4598
STARLINK-35650          
1 66573U 25268S   25346.25001157 -.00140672  00000+0 -24275-2 0  9994
2 66573  43.0001 123.9854 0001675 262.5527   9.7922 15.50667909  4592
STARLINK-35812          
1 66574U 25268T   25346.25001157  .00064281  00000+0  10946-2 0  9994
2 66574  43.0000 123.9804 0001531 267.9839   6.2872 15.50525728  4591
STARLINK-35810          
1 66575U 25268U   25346.25001157 -.00004503  00000+0 -71008-4 0  9996
2 66575  43.0001 123.9758 0001538 270.9336   5.2508 15.50567097  4594
